CCSDS_OMM_VERS = 2.0
CREATION_DATE  = 
ORIGINATOR     = 

OBJECT_NAME    = SDA_1680
OBJECT_ID      = 2025-230S
CENTER_NAME    = EARTH
REF_FRAME      = TEME
TIME_SYSTEM    = UTC
MEAN_ELEMENT_THEORY = SGP/SGP4

EPOCH          = 2025-11-04T13:56:27.844512
MEAN_MOTION    = 13.85186985
ECCENTRICITY   = .00050213
INCLINATION    = 81.3019
RA_OF_ASC_NODE = 59.9876
ARG_OF_PERICENTER = 92.1577
MEAN_ANOMALY   = 268.0155

EPHEMERIS_TYPE = 0
CLASSIFICATION_TYPE = U
NORAD_CAT_ID   = 65990
ELEMENT_SET_NO = 999
REV_AT_EPOCH   = 272
BSTAR          = .2669007E-3
MEAN_MOTION_DOT = .315E-5
MEAN_MOTION_DDOT = 0

CCSDS_OMM_VERS = 2.0
CREATION_DATE  = 
ORIGINATOR     = 

OBJECT_NAME    = SDA_1681
OBJECT_ID      = 2025-230T
CENTER_NAME    = EARTH
REF_FRAME      = TEME
TIME_SYSTEM    = UTC
MEAN_ELEMENT_THEORY = SGP/SGP4

EPOCH          = 2025-11-04T13:54:50.183136
MEAN_MOTION    = 13.85266833
ECCENTRICITY   = .0005114
INCLINATION    = 81.3017
RA_OF_ASC_NODE = 59.9845
ARG_OF_PERICENTER = 96.7111
MEAN_ANOMALY   = 263.4628

EPHEMERIS_TYPE = 0
CLASSIFICATION_TYPE = U
NORAD_CAT_ID   = 65991
ELEMENT_SET_NO = 999
REV_AT_EPOCH   = 272
BSTAR          = .24319873E-3
MEAN_MOTION_DOT = .288E-5
MEAN_MOTION_DDOT = 0

CCSDS_OMM_VERS = 2.0
CREATION_DATE  = 
ORIGINATOR     = 

OBJECT_NAME    = SDA_1682
OBJECT_ID      = 2025-230U
CENTER_NAME    = EARTH
REF_FRAME      = TEME
TIME_SYSTEM    = UTC
MEAN_ELEMENT_THEORY = SGP/SGP4

EPOCH          = 2025-11-04T14:03:40.780224
MEAN_MOTION    = 13.84831924
ECCENTRICITY   = .00037241
INCLINATION    = 81.3044
RA_OF_ASC_NODE = 59.9998
ARG_OF_PERICENTER = 71.0562
MEAN_ANOMALY   = 289.0999

EPHEMERIS_TYPE = 0
CLASSIFICATION_TYPE = U
NORAD_CAT_ID   = 65992
ELEMENT_SET_NO = 999
REV_AT_EPOCH   = 272
BSTAR          = .17055003E-3
MEAN_MOTION_DOT = .204E-5
MEAN_MOTION_DDOT = 0

CCSDS_OMM_VERS = 2.0
CREATION_DATE  = 
ORIGINATOR     = 

OBJECT_NAME    = SDA_1683
OBJECT_ID      = 2025-230V
CENTER_NAME    = EARTH
REF_FRAME      = TEME
TIME_SYSTEM    = UTC
MEAN_ELEMENT_THEORY = SGP/SGP4

EPOCH          = 2025-11-04T14:02:02.768064
MEAN_MOTION    = 13.84912095
ECCENTRICITY   = .00040604
INCLINATION    = 81.3035
RA_OF_ASC_NODE = 59.9960
ARG_OF_PERICENTER = 73.9058
MEAN_ANOMALY   = 286.2546

EPHEMERIS_TYPE = 0
CLASSIFICATION_TYPE = U
NORAD_CAT_ID   = 65993
ELEMENT_SET_NO = 999
REV_AT_EPOCH   = 272
BSTAR          = .26868884E-3
MEAN_MOTION_DOT = .315E-5
MEAN_MOTION_DDOT = 0

CCSDS_OMM_VERS = 2.0
CREATION_DATE  = 
ORIGINATOR     = 

OBJECT_NAME    = SDA_1684
OBJECT_ID      = 2025-230W
CENTER_NAME    = EARTH
REF_FRAME      = TEME
TIME_SYSTEM    = UTC
MEAN_ELEMENT_THEORY = SGP/SGP4

EPOCH          = 2025-11-04T14:04:59.331648
MEAN_MOTION    = 13.84768066
ECCENTRICITY   = .00038302
INCLINATION    = 81.3018
RA_OF_ASC_NODE = 59.9956
ARG_OF_PERICENTER = 61.0367
MEAN_ANOMALY   = 299.1174

EPHEMERIS_TYPE = 0
CLASSIFICATION_TYPE = U
NORAD_CAT_ID   = 65994
ELEMENT_SET_NO = 999
REV_AT_EPOCH   = 272
BSTAR          = .19796123E-3
MEAN_MOTION_DOT = .235E-5
MEAN_MOTION_DDOT = 0

CCSDS_OMM_VERS = 2.0
CREATION_DATE  = 
ORIGINATOR     = 

OBJECT_NAME    = HULIANWANG DIGUI 12A
OBJECT_ID      = 2025-231A
CENTER_NAME    = EARTH
REF_FRAME      = TEME
TIME_SYSTEM    = UTC
MEAN_ELEMENT_THEORY = SGP/SGP4

EPOCH          = 2025-11-04T11:03:44.749440
MEAN_MOTION    = 14.03848597
ECCENTRICITY   = .00064705
INCLINATION    = 50.0003
RA_OF_ASC_NODE = 278.7313
ARG_OF_PERICENTER = 320.9202
MEAN_ANOMALY   = 39.1235

EPHEMERIS_TYPE = 0
CLASSIFICATION_TYPE = U
NORAD_CAT_ID   = 65995
ELEMENT_SET_NO = 999
REV_AT_EPOCH   = 273
BSTAR          = .11310149E-3
MEAN_MOTION_DOT = .28E-6
MEAN_MOTION_DDOT = 0

CCSDS_OMM_VERS = 2.0
CREATION_DATE  = 
ORIGINATOR     = 

OBJECT_NAME    = HULIANWANG DIGUI 12B
OBJECT_ID      = 2025-231B
CENTER_NAME    = EARTH
REF_FRAME      = TEME
TIME_SYSTEM    = UTC
MEAN_ELEMENT_THEORY = SGP/SGP4

EPOCH          = 2025-11-04T12:50:13.851456
MEAN_MOTION    = 14.03879564
ECCENTRICITY   = .00090417
INCLINATION    = 49.9992
RA_OF_ASC_NODE = 278.4541
ARG_OF_PERICENTER = 326.3791
MEAN_ANOMALY   = 33.6539

EPHEMERIS_TYPE = 0
CLASSIFICATION_TYPE = U
NORAD_CAT_ID   = 65996
ELEMENT_SET_NO = 999
REV_AT_EPOCH   = 274
BSTAR          = .11201785E-3
MEAN_MOTION_DOT = .26E-6
MEAN_MOTION_DDOT = 0

CCSDS_OMM_VERS = 2.0
CREATION_DATE  = 
ORIGINATOR     = 

OBJECT_NAME    = HULIANWANG DIGUI 12C
OBJECT_ID      = 2025-231C
CENTER_NAME    = EARTH
REF_FRAME      = TEME
TIME_SYSTEM    = UTC
MEAN_ELEMENT_THEORY = SGP/SGP4

EPOCH          = 2025-11-04T12:44:33.724032
MEAN_MOTION    = 14.03883137
ECCENTRICITY   = .00075927
INCLINATION    = 49.9969
RA_OF_ASC_NODE = 278.4277
ARG_OF_PERICENTER = 325.8828
MEAN_ANOMALY   = 34.1587

EPHEMERIS_TYPE = 0
CLASSIFICATION_TYPE = U
NORAD_CAT_ID   = 65997
ELEMENT_SET_NO = 999
REV_AT_EPOCH   = 274
BSTAR          = .10995535E-3
MEAN_MOTION_DOT = .23E-6
MEAN_MOTION_DDOT = 0

CCSDS_OMM_VERS = 2.0
CREATION_DATE  = 
ORIGINATOR     = 

OBJECT_NAME    = HULIANWANG DIGUI 12D
OBJECT_ID      = 2025-231D
CENTER_NAME    = EARTH
REF_FRAME      = TEME
TIME_SYSTEM    = UTC
MEAN_ELEMENT_THEORY = SGP/SGP4

EPOCH          = 2025-11-04T14:19:28.144128
MEAN_MOTION    = 14.04585080
ECCENTRICITY   = .00067289
INCLINATION    = 49.9996
RA_OF_ASC_NODE = 278.1159
ARG_OF_PERICENTER = 332.2378
MEAN_ANOMALY   = 27.8167

EPHEMERIS_TYPE = 0
CLASSIFICATION_TYPE = U
NORAD_CAT_ID   = 65998
ELEMENT_SET_NO = 999
REV_AT_EPOCH   = 275
BSTAR          = .10986008E-3
MEAN_MOTION_DOT = .25E-6
MEAN_MOTION_DDOT = 0

CCSDS_OMM_VERS = 2.0
CREATION_DATE  = 
ORIGINATOR     = 

OBJECT_NAME    = HULIANWANG DIGUI 12E
OBJECT_ID      = 2025-231E
CENTER_NAME    = EARTH
REF_FRAME      = TEME
TIME_SYSTEM    = UTC
MEAN_ELEMENT_THEORY = SGP/SGP4

EPOCH          = 2025-11-04T12:42:00.058176
MEAN_MOTION    = 14.03844269
ECCENTRICITY   = .00083061
INCLINATION    = 50.0015
RA_OF_ASC_NODE = 278.4290
ARG_OF_PERICENTER = 341.5591
MEAN_ANOMALY   = 18.5011

EPHEMERIS_TYPE = 0
CLASSIFICATION_TYPE = U
NORAD_CAT_ID   = 65999
ELEMENT_SET_NO = 999
REV_AT_EPOCH   = 274
BSTAR          = .10368311E-3
MEAN_MOTION_DOT = .13E-6
MEAN_MOTION_DDOT = 0

CCSDS_OMM_VERS = 2.0
CREATION_DATE  = 
ORIGINATOR     = 

OBJECT_NAME    = HULIANWANG DIGUI 12F
OBJECT_ID      = 2025-231F
CENTER_NAME    = EARTH
REF_FRAME      = TEME
TIME_SYSTEM    = UTC
MEAN_ELEMENT_THEORY = SGP/SGP4

EPOCH          = 2025-11-04T14:13:12.009504
MEAN_MOTION    = 14.04998915
ECCENTRICITY   = .00055716
INCLINATION    = 50.0057
RA_OF_ASC_NODE = 278.1064
ARG_OF_PERICENTER = 337.1205
MEAN_ANOMALY   = 22.9451

EPHEMERIS_TYPE = 0
CLASSIFICATION_TYPE = U
NORAD_CAT_ID   = 66000
ELEMENT_SET_NO = 999
REV_AT_EPOCH   = 275
BSTAR          = .10962165E-3
MEAN_MOTION_DOT = .26E-6
MEAN_MOTION_DDOT = 0

CCSDS_OMM_VERS = 2.0
CREATION_DATE  = 
ORIGINATOR     = 

OBJECT_NAME    = HULIANWANG DIGUI 12G
OBJECT_ID      = 2025-231G
CENTER_NAME    = EARTH
REF_FRAME      = TEME
TIME_SYSTEM    = UTC
MEAN_ELEMENT_THEORY = SGP/SGP4

EPOCH          = 2025-11-04T14:20:02.599584
MEAN_MOTION    = 14.03866262
ECCENTRICITY   = .00067387
INCLINATION    = 50.0024
RA_OF_ASC_NODE = 278.1238
ARG_OF_PERICENTER = 349.8071
MEAN_ANOMALY   = 10.2695

EPHEMERIS_TYPE = 0
CLASSIFICATION_TYPE = U
NORAD_CAT_ID   = 66001
ELEMENT_SET_NO = 999
REV_AT_EPOCH   = 275
BSTAR          = .1105297E-3
MEAN_MOTION_DOT = .24E-6
MEAN_MOTION_DDOT = 0

