SDA_1680                
1 65990U 25230S   25308.58087783  .00000315  00000+0  26690-3 0  9999
2 65990  81.3019  59.9876 0005021  92.1577 268.0155 13.85186985  2728
SDA_1681                
1 65991U 25230T   25308.57974749  .00000288  00000+0  24320-3 0  9993
2 65991  81.3017  59.9845 0005114  96.7111 263.4628 13.85266833  2725
SDA_1682                
1 65992U 25230U   25308.58588866  .00000204  00000+0  17055-3 0  9991
2 65992  81.3044  59.9998 0003724  71.0562 289.0999 13.84831924  2729
SDA_1683                
1 65993U 25230V   25308.58475426  .00000315  00000+0  26869-3 0  9995
2 65993  81.3035  59.9960 0004060  73.9058 286.2546 13.84912095  2720
SDA_1684                
1 65994U 25230W   25308.58679782  .00000235  00000+0  19796-3 0  9999
2 65994  81.3018  59.9956 0003830  61.0367 299.1174 13.84768066  2729
HULIANWANG DIGUI 12A    
1 65995U 25231A   25308.46093460  .00000028  00000+0  11310-3 0  9995
2 65995  50.0003 278.7313 0006470 320.9202  39.1235 14.03848597  2734
HULIANWANG DIGUI 12B    
1 65996U 25231B   25308.53488254  .00000026  00000+0  11202-3 0  9991
2 65996  49.9992 278.4541 0009041 326.3791  33.6539 14.03879564  2744
HULIANWANG DIGUI 12C    
1 65997U 25231C   25308.53094588  .00000023  00000+0  10996-3 0  9991
2 65997  49.9969 278.4277 0007592 325.8828  34.1587 14.03883137  2749
HULIANWANG DIGUI 12D    
1 65998U 25231D   25308.59685352  .00000025  00000+0  10986-3 0  9994
2 65998  49.9996 278.1159 0006728 332.2378  27.8167 14.04585080  2759
HULIANWANG DIGUI 12E    
1 65999U 25231E   25308.52916734  .00000013  00000+0  10368-3 0  9990
2 65999  50.0015 278.4290 0008306 341.5591  18.5011 14.03844269  2748
HULIANWANG DIGUI 12F    
1 66000U 25231F   25308.59250011  .00000026  00000+0  10962-3 0  9994
2 66000  50.0057 278.1064 0005571 337.1205  22.9451 14.04998915  2755
HULIANWANG DIGUI 12G    
1 66001U 25231G   25308.59725231  .00000024  00000+0  11053-3 0  9996
2 66001  50.0024 278.1238 0006738 349.8071  10.2695 14.03866262  2758
